CCSDS_OEM_VERS = 1.0
CREATION_DATE  = 2017-05-11T11:20:30
ORIGINATOR     = GMAT USER

META_START
OBJECT_NAME          = MOPSSat_alt_35785_km_RAAN_90_134
OBJECT_ID            = SatId
CENTER_NAME          = Earth
REF_FRAME            = EME2000
TIME_SYSTEM          = UTC
START_TIME           = 2017-01-01T00:00:00.000
USEABLE_START_TIME   = 2017-01-01T00:00:00.000
USEABLE_STOP_TIME    = 2017-01-02T00:00:00.000
STOP_TIME            = 2017-01-02T00:00:00.000
INTERPOLATION        = Lagrange
INTERPOLATION_DEGREE = 7 
META_STOP


                                                                                   

2017-01-01T18:56:40.000   3.830062829047716e+04  -2.250244724713928e+04  -2.812475952547161e+00   3.583601809121885e-01   2.891984328007209e+00  -1.030401856479045e-04
2017-01-01T18:56:50.000   3.830420318159377e+04  -2.247352228870398e+04  -2.813505937080561e+00   3.566177886022596e-01   2.893007273673434e+00  -1.029566923500905e-04
2017-01-01T18:57:00.000   3.830776064120064e+04  -2.244458710313045e+04  -2.814535085828909e+00   3.548738721589859e-01   2.894029701737488e+00  -1.028730266975179e-04
2017-01-01T18:57:10.000   3.831130065405287e+04  -2.241564169556948e+04  -2.815563397068783e+00   3.531284302196089e-01   2.895051610791122e+00  -1.027891884939736e-04
2017-01-01T18:57:20.000   3.831482320484937e+04  -2.238668607154791e+04  -2.816590869062041e+00   3.513814614421817e-01   2.896072999410037e+00  -1.027051775440984e-04
2017-01-01T18:57:30.000   3.831832827828737e+04  -2.235772023650543e+04  -2.817617500072152e+00   3.496329644775532e-01   2.897093866170146e+00  -1.026209936520254e-04
2017-01-01T18:57:40.000   3.832181585904206e+04  -2.232874419596673e+04  -2.818643288358114e+00   3.478829379797692e-01   2.898114209641507e+00  -1.025366366218844e-04
2017-01-01T18:57:50.000   3.832528593184692e+04  -2.229975795487519e+04  -2.819668232198060e+00   3.461313805658396e-01   2.899134028411793e+00  -1.024521062558575e-04
2017-01-01T18:58:00.000   3.832873848141325e+04  -2.227076151825749e+04  -2.820692329865694e+00   3.443782908558582e-01   2.900153321062865e+00  -1.023674023561165e-04
2017-01-01T18:58:10.000   3.833217349244887e+04  -2.224175489107325e+04  -2.821715579635648e+00   3.426236674639434e-01   2.901172086176078e+00  -1.022825247243866e-04
2017-01-01T18:58:20.000   3.833559094961105e+04  -2.221273807858937e+04  -2.822737979770109e+00   3.408675090207502e-01   2.902190322319008e+00  -1.021974731630243e-04
2017-01-01T18:58:30.000   3.833899083754211e+04  -2.218371108610249e+04  -2.823759528528772e+00   3.391098141568191e-01   2.903208028055315e+00  -1.021122474742238e-04
2017-01-01T18:58:40.000   3.834237314086832e+04  -2.215467391893859e+04  -2.824780224168800e+00   3.373505815024919e-01   2.904225201944700e+00  -1.020268474600068e-04
2017-01-01T18:58:50.000   3.834573784416985e+04  -2.212562658273349e+04  -2.825800064935114e+00   3.355898097050319e-01   2.905241842533195e+00  -1.019412729230674e-04
2017-01-01T18:59:00.000   3.834908493202221e+04  -2.209656908305557e+04  -2.826819049073496e+00   3.338274974056483e-01   2.906257948366260e+00  -1.018555236656432e-04
2017-01-01T18:59:10.000   3.835241438897965e+04  -2.206750142555427e+04  -2.827837174825425e+00   3.320636432485228e-01   2.907273517983600e+00  -1.017695994899567e-04
2017-01-01T18:59:20.000   3.835572619965042e+04  -2.203842361530424e+04  -2.828854440451041e+00   3.302982458410176e-01   2.908288549942077e+00  -1.016835001962746e-04
2017-01-01T18:59:30.000   3.835902034862123e+04  -2.200933565746120e+04  -2.829870844206158e+00   3.285313037934550e-01   2.909303042792781e+00  -1.015972255848472e-04
2017-01-01T18:59:40.000   3.836229682047468e+04  -2.198023755711383e+04  -2.830886384347477e+00   3.267628157101541e-01   2.910316995086215e+00  -1.015107754554722e-04
2017-01-01T18:59:50.000   3.836555559974435e+04  -2.195112931965930e+04  -2.831901059119312e+00   3.249927802121222e-01   2.911330405359073e+00  -1.014241496085958e-04
2017-01-01T19:00:00.000   3.836879667094888e+04  -2.192201095052495e+04  -2.832914866763469e+00   3.232211959202707e-01   2.912343272144066e+00  -1.013373478445003e-04
2017-01-01T19:00:10.000   3.837202001859087e+04  -2.189288245516775e+04  -2.833927805519206e+00   3.214480614553318e-01   2.913355593969880e+00  -1.012503699632962e-04
2017-01-01T19:00:20.000   3.837522562712828e+04  -2.186374383935577e+04  -2.834939873613600e+00   3.196733754551135e-01   2.914367369351508e+00  -1.011632157657759e-04
2017-01-01T19:00:30.000   3.837841348101394e+04  -2.183459510878970e+04  -2.835951069274554e+00   3.178971365513422e-01   2.915378596803283e+00  -1.010758850522706e-04
2017-01-01T19:00:40.000   3.838158356467936e+04  -2.180543626925467e+04  -2.836961390725558e+00   3.161193433789357e-01   2.916389274833627e+00  -1.009883776231066e-04
2017-01-01T19:00:50.000   3.838473586260753e+04  -2.177626732595119e+04  -2.837970836208877e+00   3.143399945352167e-01   2.917399401968231e+00  -1.009006932766037e-04
2017-01-01T19:01:00.000   3.838787035925974e+04  -2.174708828416594e+04  -2.838979403962289e+00   3.125590886207912e-01   2.918408976726795e+00  -1.008128318110802e-04
2017-01-01T19:01:10.000   3.839098703909467e+04  -2.171789914909870e+04  -2.839987092225099e+00   3.107766242290133e-01   2.919417997629029e+00  -1.007247930243370e-04
2017-01-01T19:01:20.000   3.839408588651656e+04  -2.168869992632735e+04  -2.840993899221950e+00   3.089925999742725e-01   2.920426463178464e+00  -1.006365767150374e-04
2017-01-01T19:01:30.000   3.839716688591826e+04  -2.165949062142439e+04  -2.841999823176185e+00   3.072070144686809e-01   2.921434371875811e+00  -1.005481826815728e-04
2017-01-01T19:01:40.000   3.840023002167129e+04  -2.163027124004537e+04  -2.843004862306777e+00   3.054198663274461e-01   2.922441722215863e+00  -1.004596107223228e-04
2017-01-01T19:01:50.000   3.840327527813065e+04  -2.160104178789532e+04  -2.844009014829553e+00   3.036311541668810e-01   2.923448512688720e+00  -1.003708606355692e-04
2017-01-01T19:02:00.000   3.840630263963555e+04  -2.157180227071173e+04  -2.845012278957722e+00   3.018408766033158e-01   2.924454741780306e+00  -1.002819322194311e-04
2017-01-01T19:02:10.000   3.840931209051306e+04  -2.154255269422972e+04  -2.846014652903062e+00   3.000490322509591e-01   2.925460407973570e+00  -1.001928252717595e-04
2017-01-01T19:02:20.000   3.841230361508072e+04  -2.151329306416623e+04  -2.847016134876533e+00   2.982556197209878e-01   2.926465509749072e+00  -1.001035395900926e-04
2017-01-01T19:02:30.000   3.841527719764895e+04  -2.148402338618492e+04  -2.848016723089402e+00   2.964606376193265e-01   2.927470045586119e+00  -1.000140749715434e-04
2017-01-01T19:02:40.000   3.841823282251239e+04  -2.145474366598542e+04  -2.849016415750210e+00   2.946640845521475e-01   2.928474013959717e+00  -9.992443121307463e-05
2017-01-01T19:02:50.000   3.842117047398717e+04  -2.142545390891652e+04  -2.850015211077868e+00   2.928659591020459e-01   2.929477413353747e+00  -9.983460811030611e-05
2017-01-01T19:03:00.000   3.842409013636532e+04  -2.139615412044481e+04  -2.851013107285769e+00   2.910662598568803e-01   2.930480242244964e+00  -9.974460545895702e-05
2017-01-01T19:03:10.000   3.842699179393228e+04  -2.136684430597765e+04  -2.852010102587804e+00   2.892649853988908e-01   2.931482499109050e+00  -9.965442305430232e-05
2017-01-01T19:03:20.000   3.842987543089882e+04  -2.133752447154846e+04  -2.853006195175037e+00   2.874621343468037e-01   2.932484182397157e+00  -9.956406069327423e-05
2017-01-01T19:03:30.000   3.843274103146916e+04  -2.130819462313166e+04  -2.854001383239034e+00   2.856577053137438e-01   2.933485290559341e+00  -9.947351817236190e-05
2017-01-01T19:03:40.000   3.843558857982321e+04  -2.127885476681937e+04  -2.854995664965820e+00   2.838516969180843e-01   2.934485822038503e+00  -9.938279528815114e-05
2017-01-01T19:03:50.000   3.843841806016411e+04  -2.124950490835415e+04  -2.855989038551868e+00   2.820441077547897e-01   2.935485775286420e+00  -9.929189183590030e-05
2017-01-01T19:04:00.000   3.844122945667860e+04  -2.122014505351455e+04  -2.856981502190884e+00   2.802349364190380e-01   2.936485148750482e+00  -9.920080761071135e-05
2017-01-01T19:04:10.000   3.844402275354626e+04  -2.119077520802622e+04  -2.857973054076863e+00   2.784241815007817e-01   2.937483940876751e+00  -9.910954240726082e-05
2017-01-01T19:04:20.000   3.844679793493485e+04  -2.116139537759587e+04  -2.858963692402843e+00   2.766118415867672e-01   2.938482150108725e+00  -9.901809601989162e-05
2017-01-01T19:04:30.000   3.844955498499981e+04  -2.113200556792826e+04  -2.859953415360402e+00   2.747979152616398e-01   2.939479774886808e+00  -9.892646824267630e-05
2017-01-01T19:04:40.000   3.845229388788091e+04  -2.110260578476146e+04  -2.860942221138479e+00   2.729824011101152e-01   2.940476813647108e+00  -9.883465886952617e-05
2017-01-01T19:04:50.000   3.845501462769962e+04  -2.107319603388272e+04  -2.861930107922753e+00   2.711652977179043e-01   2.941473264820831e+00  -9.874266769423264e-05
2017-01-01T19:05:00.000   3.845771718855726e+04  -2.104377632116383e+04  -2.862917073894550e+00   2.693466036739667e-01   2.942469126833148e+00  -9.865049451058768e-05
2017-01-01T19:05:10.000   3.846040155454258e+04  -2.101434665247154e+04  -2.863903117233812e+00   2.675263175649416e-01   2.943464398106186e+00  -9.855813911209817e-05
2017-01-01T19:05:20.000   3.846306770969825e+04  -2.098490703405627e+04  -2.864888236106186e+00   2.657044379992899e-01   2.944459077045973e+00  -9.846560129322153e-05
2017-01-01T19:05:30.000   3.846571563806188e+04  -2.095545747208135e+04  -2.865872428678690e+00   2.638809635780787e-01   2.945453162058259e+00  -9.837288084787210e-05
2017-01-01T19:05:40.000   3.846834532365053e+04  -2.092599797279805e+04  -2.866855693113863e+00   2.620558929058283e-01   2.946446651542606e+00  -9.827997756997470e-05
